{
  "type": "FeatureCollection",
  "features": [
    {
      "type": "Feature",
      "properties": {
        "norad_id": 42917,
        "name": "QZS-3 (QZSS/PRN 199)",
        "group": "gnss",
        "lat": -0.040735671100762816,
        "lon": 158.1645477567782,
        "alt_km": 35788.75055939343,
        "timestamp": "2025-12-11T20:41:15.324502+00:00",
        "meta_object_name": "QZS-3 (QZSS/PRN 199)",
        "meta_object_id": "2017-048A",
        "meta_epoch": "2025-12-11T14:32:49.873056",
        "meta_mean_motion": 1.00272564,
        "meta_eccentricity": 0.00020486,
        "meta_inclination": 0.0608,
        "meta_ra_of_asc_node": 198.2743,
        "meta_arg_of_pericenter": 69.104,
        "meta_mean_anomaly": 158.4543,
        "meta_ephemeris_type": 0,
        "meta_classification_type": "U",
        "meta_norad_cat_id": 42917,
        "meta_element_set_no": 999,
        "meta_rev_at_epoch": 3037,
        "meta_bstar": 0,
        "meta_mean_motion_dot": -3.4e-06,
        "meta_mean_motion_ddot": 0,
        "tle_line1": "1 42917U 17048A   25345.60613279 -.00000340  00000+0  00000+0 0  9992",
        "tle_line2": "2 42917   0.0608 198.2743 0002048  69.1040 158.4543  1.00272564 30377"
      },
      "geometry": {
        "type": "Point",
        "coordinates": [
          158.1645477567782,
          -0.040735671100762816
        ]
      }
    },
    {
      "type": "Feature",
      "properties": {
        "norad_id": 42939,
        "name": "COSMOS 2522 (752)",
        "group": "gnss",
        "lat": -18.310664518350602,
        "lon": -171.0002108479196,
        "alt_km": 19139.495349310557,
        "timestamp": "2025-12-11T20:41:15.324515+00:00",
        "meta_object_name": "COSMOS 2522 (752)",
        "meta_object_id": "2017-055A",
        "meta_epoch": "2025-12-10T22:48:12.074400",
        "meta_mean_motion": 2.1310181,
        "meta_eccentricity": 0.00064932,
        "meta_inclination": 64.076,
        "meta_ra_of_asc_node": 198.29,
        "meta_arg_of_pericenter": 225.3551,
        "meta_mean_anomaly": 134.6611,
        "meta_ephemeris_type": 0,
        "meta_classification_type": "U",
        "meta_norad_cat_id": 42939,
        "meta_element_set_no": 999,
        "meta_rev_at_epoch": 6396,
        "meta_bstar": 0,
        "meta_mean_motion_dot": 5.1e-07,
        "meta_mean_motion_ddot": 0,
        "tle_line1": "1 42939U 17055A   25344.95013975  .00000051  00000+0  00000+0 0  9996",
        "tle_line2": "2 42939  64.0760 198.2900 0006493 225.3551 134.6611  2.13101810 63969"
      },
      "geometry": {
        "type": "Point",
        "coordinates": [
          -171.0002108479196,
          -18.310664518350602
        ]
      }
    },
    {
      "type": "Feature",
      "properties": {
        "norad_id": 42965,
        "name": "QZS-4 (QZSS/PRN 195)",
        "group": "gnss",
        "lat": 4.430222571124346,
        "lon": 160.61578862460692,
        "alt_km": 36018.767842589434,
        "timestamp": "2025-12-11T20:41:15.324526+00:00",
        "meta_object_name": "QZS-4 (QZSS/PRN 195)",
        "meta_object_id": "2017-062A",
        "meta_epoch": "2025-12-11T08:18:51.411168",
        "meta_mean_motion": 1.00253195,
        "meta_eccentricity": 0.07520387,
        "meta_inclination": 40.2265,
        "meta_ra_of_asc_node": 345.8876,
        "meta_arg_of_pericenter": 271.5241,
        "meta_mean_anomaly": 84.1277,
        "meta_ephemeris_type": 0,
        "meta_classification_type": "U",
        "meta_norad_cat_id": 42965,
        "meta_element_set_no": 999,
        "meta_rev_at_epoch": 2992,
        "meta_bstar": 0,
        "meta_mean_motion_dot": -3.6e-06,
        "meta_mean_motion_ddot": 0,
        "tle_line1": "1 42965U 17062A   25345.34642837 -.00000360  00000+0  00000+0 0  9996",
        "tle_line2": "2 42965  40.2265 345.8876 0752038 271.5241  84.1277  1.00253195 29922"
      },
      "geometry": {
        "type": "Point",
        "coordinates": [
          160.61578862460692,
          4.430222571124346
        ]
      }
    },
    {
      "type": "Feature",
      "properties": {
        "norad_id": 43001,
        "name": "BEIDOU-3 M1 (C19)",
        "group": "gnss",
        "lat": 56.17355617275967,
        "lon": 149.68642551616605,
        "alt_km": 21541.17153445491,
        "timestamp": "2025-12-11T20:41:15.324538+00:00",
        "meta_object_name": "BEIDOU-3 M1 (C19)",
        "meta_object_id": "2017-069A",
        "meta_epoch": "2025-12-10T02:59:44.237184",
        "meta_mean_motion": 1.86231011,
        "meta_eccentricity": 0.0009053,
        "meta_inclination": 56.5252,
        "meta_ra_of_asc_node": 69.32,
        "meta_arg_of_pericenter": 303.7778,
        "meta_mean_anomaly": 56.1585,
        "meta_ephemeris_type": 0,
        "meta_classification_type": "U",
        "meta_norad_cat_id": 43001,
        "meta_element_set_no": 999,
        "meta_rev_at_epoch": 5508,
        "meta_bstar": 0,
        "meta_mean_motion_dot": -5.2e-07,
        "meta_mean_motion_ddot": 0,
        "tle_line1": "1 43001U 17069A   25344.12481756 -.00000052  00000+0  00000+0 0  9999",
        "tle_line2": "2 43001  56.5252  69.3200 0009053 303.7778  56.1585  1.86231011 55088"
      },
      "geometry": {
        "type": "Point",
        "coordinates": [
          149.68642551616605,
          56.17355617275967
        ]
      }
    },
    {
      "type": "Feature",
      "properties": {
        "norad_id": 43002,
        "name": "BEIDOU-3 M2 (C20)",
        "group": "gnss",
        "lat": 42.42512697053949,
        "lon": -147.84370637191032,
        "alt_km": 21538.59761870468,
        "timestamp": "2025-12-11T20:41:15.324548+00:00",
        "meta_object_name": "BEIDOU-3 M2 (C20)",
        "meta_object_id": "2017-069B",
        "meta_epoch": "2025-12-09T12:37:45.819264",
        "meta_mean_motion": 1.8623055,
        "meta_eccentricity": 0.0006254,
        "meta_inclination": 56.5238,
        "meta_ra_of_asc_node": 69.3764,
        "meta_arg_of_pericenter": 332.6094,
        "meta_mean_anomaly": 27.38,
        "meta_ephemeris_type": 0,
        "meta_classification_type": "U",
        "meta_norad_cat_id": 43002,
        "meta_element_set_no": 999,
        "meta_rev_at_epoch": 5506,
        "meta_bstar": 0,
        "meta_mean_motion_dot": -4.8e-07,
        "meta_mean_motion_ddot": 0,
        "tle_line1": "1 43002U 17069B   25343.52622476 -.00000048  00000+0  00000+0 0  9994",
        "tle_line2": "2 43002  56.5238  69.3764 0006254 332.6094  27.3800  1.86230550 55065"
      },
      "geometry": {
        "type": "Point",
        "coordinates": [
          -147.84370637191032,
          42.42512697053949
        ]
      }
    },
    {
      "type": "Feature",
      "properties": {
        "norad_id": 43055,
        "name": "GSAT0215 (GALILEO 19)",
        "group": "gnss",
        "lat": -17.059829878206127,
        "lon": -145.674350355104,
        "alt_km": 23220.90133961635,
        "timestamp": "2025-12-11T20:41:15.324561+00:00",
        "meta_object_name": "GSAT0215 (GALILEO 19)",
        "meta_object_id": "2017-079A",
        "meta_epoch": "2025-12-11T07:25:43.247712",
        "meta_mean_motion": 1.7047387,
        "meta_eccentricity": 0.00012643,
        "meta_inclination": 55.1305,
        "meta_ra_of_asc_node": 226.6772,
        "meta_arg_of_pericenter": 348.3771,
        "meta_mean_anomaly": 11.6989,
        "meta_ephemeris_type": 0,
        "meta_classification_type": "U",
        "meta_norad_cat_id": 43055,
        "meta_element_set_no": 999,
        "meta_rev_at_epoch": 4978,
        "meta_bstar": 0,
        "meta_mean_motion_dot": 1e-07,
        "meta_mean_motion_ddot": 0,
        "tle_line1": "1 43055U 17079A   25345.30952833  .00000010  00000+0  00000+0 0  9992",
        "tle_line2": "2 43055  55.1305 226.6772 0001264 348.3771  11.6989  1.70473870 49785"
      },
      "geometry": {
        "type": "Point",
        "coordinates": [
          -145.674350355104,
          -17.059829878206127
        ]
      }
    },
    {
      "type": "Feature",
      "properties": {
        "norad_id": 43056,
        "name": "GSAT0216 (GALILEO 20)",
        "group": "gnss",
        "lat": 16.05107794019134,
        "lon": 35.10751552349196,
        "alt_km": 23227.210954720274,
        "timestamp": "2025-12-11T20:41:15.324572+00:00",
        "meta_object_name": "GSAT0216 (GALILEO 20)",
        "meta_object_id": "2017-079B",
        "meta_epoch": "2025-12-10T10:15:48.535776",
        "meta_mean_motion": 1.70473969,
        "meta_eccentricity": 0.000248,
        "meta_inclination": 55.1311,
        "meta_ra_of_asc_node": 226.7014,
        "meta_arg_of_pericenter": 319.9818,
        "meta_mean_anomaly": 40.0811,
        "meta_ephemeris_type": 0,
        "meta_classification_type": "U",
        "meta_norad_cat_id": 43056,
        "meta_element_set_no": 999,
        "meta_rev_at_epoch": 4978,
        "meta_bstar": 0,
        "meta_mean_motion_dot": 9e-08,
        "meta_mean_motion_ddot": 0,
        "tle_line1": "1 43056U 17079B   25344.42764509  .00000009  00000+0  00000+0 0  9994",
        "tle_line2": "2 43056  55.1311 226.7014 0002480 319.9818  40.0811  1.70473969 49789"
      },
      "geometry": {
        "type": "Point",
        "coordinates": [
          35.10751552349196,
          16.05107794019134
        ]
      }
    }
  ]
}